STARLINK-35322          
1 66332U 25253P   25333.25002315 -.00037774  00000+0 -64121-3 0  9997
2 66332  42.9996  63.5809 0000956 259.8345 300.3295 15.50577739  4766
STARLINK-35400          
1 66333U 25253Q   25333.25002315 -.00030024  00000+0 -50806-3 0  9994
2 66333  42.9994  63.5612 0000939 259.0642 308.7734 15.50571744  4760
STARLINK-35407          
1 66334U 25253R   25333.25002315  .00089750  00000+0  15235-2 0  9999
2 66334  42.9996  63.5768 0001464 261.0784 301.1014 15.50481071  4760
STARLINK-35417          
1 66335U 25253S   25333.25002315 -.02005204  00000+0 -45942-1 0  9993
2 66335  43.0001  63.5646 0001065 261.5700 305.1676 15.45404624  4766
STARLINK-35404          
1 66336U 25253T   25333.25002315 -.00026860  00000+0 -45372-3 0  9992
2 66336  42.9994  63.5523 0001410 262.2983 309.3718 15.50571490  4850
STARLINK-34783          
1 66337U 25253U   25333.25002315 -.02054752  00000+0 -42636-1 0  9994
2 66337  42.9993  63.5385 0001159 265.2242 312.0599 15.48321218  4808
STARLINK-35477          
1 66338U 25253V   25333.25002315 -.02046638  00000+0 -49199-1 0  9990
2 66338  42.9997  63.5856 0000865 286.7915 271.8137 15.44085262  4851
STARLINK-35443          
1 66339U 25253W   25333.25002315  .00099899  00000+0  16918-2 0  9998
2 66339  42.9994  63.5183 0001544 264.9359 320.1751 15.50499571  4801
STARLINK-35218          
1 66340U 25253X   25333.25002315  .00086943  00000+0  14753-2 0  9991
2 66340  42.9994  63.5469 0001507 261.8181 311.7973 15.50503782  4855
STARLINK-35522          
1 66341U 25253Y   25333.25002315 -.00036583  00000+0 -62075-3 0  9990
2 66341  42.9994  63.5682 0000963 261.0643 304.8515 15.50576457  4857
STARLINK-35535          
1 66342U 25253Z   25333.25002315 -.00019296  00000+0 -32400-3 0  9992
2 66342  42.9994  63.5226 0001412 264.7678 318.4029 15.50569157  4760
STARLINK-35467          
1 66343U 25253AA  25333.25002315 -.01667970  00000+0 -31321-1 0  9991
2 66343  42.9997  63.5276 0001139 255.2271 325.9658 15.50964831  4768
