CCSDS_OMM_VERS = 2.0
CREATION_DATE  = 
ORIGINATOR     = 

OBJECT_NAME    = STARLINK-35322
OBJECT_ID      = 2025-253P
CENTER_NAME    = EARTH
REF_FRAME      = TEME
TIME_SYSTEM    = UTC
MEAN_ELEMENT_THEORY = SGP/SGP4

EPOCH          = 2025-11-29T06:00:02.000160
MEAN_MOTION    = 15.50577739
ECCENTRICITY   = .00009563
INCLINATION    = 42.9996
RA_OF_ASC_NODE = 63.5809
ARG_OF_PERICENTER = 259.8345
MEAN_ANOMALY   = 300.3295

EPHEMERIS_TYPE = 0
CLASSIFICATION_TYPE = U
NORAD_CAT_ID   = 66332
ELEMENT_SET_NO = 999
REV_AT_EPOCH   = 476
BSTAR          = -.64120627E-3
MEAN_MOTION_DOT = -.37774E-3
MEAN_MOTION_DDOT = 0

CCSDS_OMM_VERS = 2.0
CREATION_DATE  = 
ORIGINATOR     = 

OBJECT_NAME    = STARLINK-35400
OBJECT_ID      = 2025-253Q
CENTER_NAME    = EARTH
REF_FRAME      = TEME
TIME_SYSTEM    = UTC
MEAN_ELEMENT_THEORY = SGP/SGP4

EPOCH          = 2025-11-29T06:00:02.000160
MEAN_MOTION    = 15.50571744
ECCENTRICITY   = .00009398
INCLINATION    = 42.9994
RA_OF_ASC_NODE = 63.5612
ARG_OF_PERICENTER = 259.0642
MEAN_ANOMALY   = 308.7734

EPHEMERIS_TYPE = 0
CLASSIFICATION_TYPE = U
NORAD_CAT_ID   = 66333
ELEMENT_SET_NO = 999
REV_AT_EPOCH   = 476
BSTAR          = -.50805941E-3
MEAN_MOTION_DOT = -.30024E-3
MEAN_MOTION_DDOT = 0

CCSDS_OMM_VERS = 2.0
CREATION_DATE  = 
ORIGINATOR     = 

OBJECT_NAME    = STARLINK-35407
OBJECT_ID      = 2025-253R
CENTER_NAME    = EARTH
REF_FRAME      = TEME
TIME_SYSTEM    = UTC
MEAN_ELEMENT_THEORY = SGP/SGP4

EPOCH          = 2025-11-29T06:00:02.000160
MEAN_MOTION    = 15.50481071
ECCENTRICITY   = .00014644
INCLINATION    = 42.9996
RA_OF_ASC_NODE = 63.5768
ARG_OF_PERICENTER = 261.0784
MEAN_ANOMALY   = 301.1014

EPHEMERIS_TYPE = 0
CLASSIFICATION_TYPE = U
NORAD_CAT_ID   = 66334
ELEMENT_SET_NO = 999
REV_AT_EPOCH   = 476
BSTAR          = .15234738E-2
MEAN_MOTION_DOT = .8975E-3
MEAN_MOTION_DDOT = 0

CCSDS_OMM_VERS = 2.0
CREATION_DATE  = 
ORIGINATOR     = 

OBJECT_NAME    = STARLINK-35417
OBJECT_ID      = 2025-253S
CENTER_NAME    = EARTH
REF_FRAME      = TEME
TIME_SYSTEM    = UTC
MEAN_ELEMENT_THEORY = SGP/SGP4

EPOCH          = 2025-11-29T06:00:02.000160
MEAN_MOTION    = 15.45404624
ECCENTRICITY   = .00010659
INCLINATION    = 43.0001
RA_OF_ASC_NODE = 63.5646
ARG_OF_PERICENTER = 261.5700
MEAN_ANOMALY   = 305.1676

EPHEMERIS_TYPE = 0
CLASSIFICATION_TYPE = U
NORAD_CAT_ID   = 66335
ELEMENT_SET_NO = 999
REV_AT_EPOCH   = 476
BSTAR          = -.45941833E-1
MEAN_MOTION_DOT = -.2005204E-1
MEAN_MOTION_DDOT = 0

CCSDS_OMM_VERS = 2.0
CREATION_DATE  = 
ORIGINATOR     = 

OBJECT_NAME    = STARLINK-35404
OBJECT_ID      = 2025-253T
CENTER_NAME    = EARTH
REF_FRAME      = TEME
TIME_SYSTEM    = UTC
MEAN_ELEMENT_THEORY = SGP/SGP4

EPOCH          = 2025-11-29T06:00:02.000160
MEAN_MOTION    = 15.50571490
ECCENTRICITY   = .000141
INCLINATION    = 42.9994
RA_OF_ASC_NODE = 63.5523
ARG_OF_PERICENTER = 262.2983
MEAN_ANOMALY   = 309.3718

EPHEMERIS_TYPE = 0
CLASSIFICATION_TYPE = U
NORAD_CAT_ID   = 66336
ELEMENT_SET_NO = 999
REV_AT_EPOCH   = 485
BSTAR          = -.45371726E-3
MEAN_MOTION_DOT = -.2686E-3
MEAN_MOTION_DDOT = 0

CCSDS_OMM_VERS = 2.0
CREATION_DATE  = 
ORIGINATOR     = 

OBJECT_NAME    = STARLINK-34783
OBJECT_ID      = 2025-253U
CENTER_NAME    = EARTH
REF_FRAME      = TEME
TIME_SYSTEM    = UTC
MEAN_ELEMENT_THEORY = SGP/SGP4

EPOCH          = 2025-11-29T06:00:02.000160
MEAN_MOTION    = 15.48321218
ECCENTRICITY   = .00011594
INCLINATION    = 42.9993
RA_OF_ASC_NODE = 63.5385
ARG_OF_PERICENTER = 265.2242
MEAN_ANOMALY   = 312.0599

EPHEMERIS_TYPE = 0
CLASSIFICATION_TYPE = U
NORAD_CAT_ID   = 66337
ELEMENT_SET_NO = 999
REV_AT_EPOCH   = 480
BSTAR          = -.42636207E-1
MEAN_MOTION_DOT = -.2054752E-1
MEAN_MOTION_DDOT = 0

CCSDS_OMM_VERS = 2.0
CREATION_DATE  = 
ORIGINATOR     = 

OBJECT_NAME    = STARLINK-35477
OBJECT_ID      = 2025-253V
CENTER_NAME    = EARTH
REF_FRAME      = TEME
TIME_SYSTEM    = UTC
MEAN_ELEMENT_THEORY = SGP/SGP4

EPOCH          = 2025-11-29T06:00:02.000160
MEAN_MOTION    = 15.44085262
ECCENTRICITY   = .00008654
INCLINATION    = 42.9997
RA_OF_ASC_NODE = 63.5856
ARG_OF_PERICENTER = 286.7915
MEAN_ANOMALY   = 271.8137

EPHEMERIS_TYPE = 0
CLASSIFICATION_TYPE = U
NORAD_CAT_ID   = 66338
ELEMENT_SET_NO = 999
REV_AT_EPOCH   = 485
BSTAR          = -.49199098E-1
MEAN_MOTION_DOT = -.2046638E-1
MEAN_MOTION_DDOT = 0

CCSDS_OMM_VERS = 2.0
CREATION_DATE  = 
ORIGINATOR     = 

OBJECT_NAME    = STARLINK-35443
OBJECT_ID      = 2025-253W
CENTER_NAME    = EARTH
REF_FRAME      = TEME
TIME_SYSTEM    = UTC
MEAN_ELEMENT_THEORY = SGP/SGP4

EPOCH          = 2025-11-29T06:00:02.000160
MEAN_MOTION    = 15.50499571
ECCENTRICITY   = .00015448
INCLINATION    = 42.9994
RA_OF_ASC_NODE = 63.5183
ARG_OF_PERICENTER = 264.9359
MEAN_ANOMALY   = 320.1751

EPHEMERIS_TYPE = 0
CLASSIFICATION_TYPE = U
NORAD_CAT_ID   = 66339
ELEMENT_SET_NO = 999
REV_AT_EPOCH   = 480
BSTAR          = .16917665E-2
MEAN_MOTION_DOT = .99899E-3
MEAN_MOTION_DDOT = 0

CCSDS_OMM_VERS = 2.0
CREATION_DATE  = 
ORIGINATOR     = 

OBJECT_NAME    = STARLINK-35218
OBJECT_ID      = 2025-253X
CENTER_NAME    = EARTH
REF_FRAME      = TEME
TIME_SYSTEM    = UTC
MEAN_ELEMENT_THEORY = SGP/SGP4

EPOCH          = 2025-11-29T06:00:02.000160
MEAN_MOTION    = 15.50503782
ECCENTRICITY   = .00015079
INCLINATION    = 42.9994
RA_OF_ASC_NODE = 63.5469
ARG_OF_PERICENTER = 261.8181
MEAN_ANOMALY   = 311.7973

EPHEMERIS_TYPE = 0
CLASSIFICATION_TYPE = U
NORAD_CAT_ID   = 66340
ELEMENT_SET_NO = 999
REV_AT_EPOCH   = 485
BSTAR          = .14753344E-2
MEAN_MOTION_DOT = .86943E-3
MEAN_MOTION_DDOT = 0

CCSDS_OMM_VERS = 2.0
CREATION_DATE  = 
ORIGINATOR     = 

OBJECT_NAME    = STARLINK-35522
OBJECT_ID      = 2025-253Y
CENTER_NAME    = EARTH
REF_FRAME      = TEME
TIME_SYSTEM    = UTC
MEAN_ELEMENT_THEORY = SGP/SGP4

EPOCH          = 2025-11-29T06:00:02.000160
MEAN_MOTION    = 15.50576457
ECCENTRICITY   = .00009637
INCLINATION    = 42.9994
RA_OF_ASC_NODE = 63.5682
ARG_OF_PERICENTER = 261.0643
MEAN_ANOMALY   = 304.8515

EPHEMERIS_TYPE = 0
CLASSIFICATION_TYPE = U
NORAD_CAT_ID   = 66341
ELEMENT_SET_NO = 999
REV_AT_EPOCH   = 485
BSTAR          = -.62074644E-3
MEAN_MOTION_DOT = -.36583E-3
MEAN_MOTION_DDOT = 0

CCSDS_OMM_VERS = 2.0
CREATION_DATE  = 
ORIGINATOR     = 

OBJECT_NAME    = STARLINK-35535
OBJECT_ID      = 2025-253Z
CENTER_NAME    = EARTH
REF_FRAME      = TEME
TIME_SYSTEM    = UTC
MEAN_ELEMENT_THEORY = SGP/SGP4

EPOCH          = 2025-11-29T06:00:02.000160
MEAN_MOTION    = 15.50569157
ECCENTRICITY   = .00014121
INCLINATION    = 42.9994
RA_OF_ASC_NODE = 63.5226
ARG_OF_PERICENTER = 264.7678
MEAN_ANOMALY   = 318.4029

EPHEMERIS_TYPE = 0
CLASSIFICATION_TYPE = U
NORAD_CAT_ID   = 66342
ELEMENT_SET_NO = 999
REV_AT_EPOCH   = 476
BSTAR          = -.32400349E-3
MEAN_MOTION_DOT = -.19296E-3
MEAN_MOTION_DDOT = 0

CCSDS_OMM_VERS = 2.0
CREATION_DATE  = 
ORIGINATOR     = 

OBJECT_NAME    = STARLINK-35467
OBJECT_ID      = 2025-253AA
CENTER_NAME    = EARTH
REF_FRAME      = TEME
TIME_SYSTEM    = UTC
MEAN_ELEMENT_THEORY = SGP/SGP4

EPOCH          = 2025-11-29T06:00:02.000160
MEAN_MOTION    = 15.50964831
ECCENTRICITY   = .00011398
INCLINATION    = 42.9997
RA_OF_ASC_NODE = 63.5276
ARG_OF_PERICENTER = 255.2271
MEAN_ANOMALY   = 325.9658

EPHEMERIS_TYPE = 0
CLASSIFICATION_TYPE = U
NORAD_CAT_ID   = 66343
ELEMENT_SET_NO = 999
REV_AT_EPOCH   = 476
BSTAR          = -.31320957E-1
MEAN_MOTION_DOT = -.166797E-1
MEAN_MOTION_DDOT = 0

